#dP2022  5 17  0  0  0.00000000      97 __u+U IGS14 FIT  IAC
## 2210 172800.00000000   900.00000000 59716 0.0000000000000
+  115   C06C07C08C09C10C11C12C13C14C16C19C20C21C22C23C24C25
+        C26C27C28C29C30C32C33C34C35C36C37C38C39C40C41C42C43
+        C44C45C46E02E03E04E05E07E08E09E10E11E12E13E14E15E18
+        E19E21E24E25E26E27E30E31E33E34E36G01G02G03G04G05G06
+        G07G08G09G10G12G13G14G15G16G17G18G19G20G21G22G23G24
+        G25G26G27G28G29G30G31G32J02J03R01R02R03R04R05R07R08
+        R09R11R12R13R14R15R17R18R19R20R21R22R24  0  0  0  0
++         7  7  7  7  7  6  6  7  6  7  6  6  6  5  5  6  5
++         6  6  6  5  6  6  6  5  5  6  6  6  6  7  6  6  5
++         6  6  6  4  4  4  4  4  4  5  4  4  4  4  5  4  4
++         4  4  4  4  4  4  4  4  4  4  4  3  3  4  3  3  3
++         3  3  3  3  4  3  4  4  3  4  3  4  3  3  4  3  3
++         3  3  3  4  3  3  4  4  9  9  6  6  6  6  6  6  6
++         6  6  6  7  6  6  6  6  7  7  6  7  6  0  0  0  0
%c M  cc GPS ccc cccc cccc cccc cccc ccccc ccccc ccccc ccccc
%c cc cc ccc ccc cccc cccc cccc cccc ccccc ccccc ccccc ccccc
%f  1.2500000  1.025000000  0.00000000000  0.000000000000000
%f  0.0000000  0.000000000  0.00000000000  0.000000000000000
%i    0    0    0    0      0      0      0      0         0
%i    0    0    0    0      0      0      0      0         0
/* INFORMATION & ANALYSIS CENTER (IAC)            FINAL DATA
/* S/V CLOCKS ARE ALIGNED TO GNSS TIME                      
/* G:C1WC2W R:C1PC2P E:C1XC5X C:C2IC6I J:C1CC2S             
/* PCV:IGS14_2196 OL/AL:FES2004  NONE     YN ORB:CoN CLK:CoN
*  2022 05 17 11 45  0.00000000
PC06 -16626.155422  37293.556870 -10941.191883      2.207262
PC07  -2927.746715  34184.587429 -24420.861081   -177.821816
PC08 -11625.598788  19603.956080  35459.488365    317.287219
PC09 -11462.064747  36277.223672 -18329.008245   -795.717039
PC10   4525.553194  37054.014333 -18896.393935    131.813090
PC11   7091.027650 -24457.492899 -11389.941518    357.624670
PC12  17855.761716 -20610.446288   5982.576563   -614.766141
PC13  -2542.396678  22241.149785  35847.659547    -30.314039
PC14  -4258.528526 -24913.710932 -11870.793973    476.947939
PC16 -18998.224636  36963.586605  -7708.415351    132.128921
PC19  11415.951321  25270.688911   3043.459793    869.103891
PC20  -2264.265814  21378.182013  17793.696726   -918.590699
PC21  15464.371921  -4372.874727 -22789.145270   -306.987525
PC22  19040.731248  14678.735606 -14133.719109   -969.725020
PC23 -25186.242166  -7528.425056   9373.106282   -930.192972
PC24  12775.642213 -14212.556680  20335.197661   -965.575289
PC25 -10333.624266 -15132.656053  21035.691979   -735.395408
PC26  25872.665738  -5988.690191   8618.880370    736.624795
PC27 -20015.334612  13843.044250 -13696.603318    724.560499
PC28 -15665.834584  -4567.042104 -22639.928092     67.773473
PC29   2544.783418  20905.038464  18300.164838    555.845549
PC30 -12403.644905  24877.724135   2585.721165    498.616858
PC32 -15500.595186   4422.887700  22801.797650   -963.479113
PC33 -11557.720977 -25226.971975  -3060.455004   -965.929196
PC34  11742.556696 -25044.229303  -3610.160741   -401.596262
PC35  15336.715305   5151.912839  22720.662465    278.038767
PC36   9427.324488  15467.451617 -21203.835321   -964.405517
PC37 -26440.847310   4646.603729  -7567.399679   -911.250863
PC38 -19678.703030  20077.040909  31409.823754    232.761070
PC39 -20726.853002  36801.738712  -1354.388736     34.982238
PC40  -6376.127558  30202.314784 -28668.932864    269.781127
PC41 -19100.865619 -14998.487184  13806.749629   -966.063069
PC42   3020.473003 -20802.910814 -18316.929263   -971.038888
PC43  -2009.219930 -21356.265163 -17850.189289   -923.600736
PC44  19570.257165 -14318.443740  13764.267513    662.437662
PC45  25350.525831   7285.738068  -9138.176014    759.304372
PC46 -11084.868125  14591.210946 -21033.850120   -329.249036
PE02   8606.266470  20666.640830 -19375.976792    299.726706
PE03   2237.064074  29241.273010  -3955.741430   -559.162135
PE04 -13437.969220 -17766.890064  19505.143769  -1029.830557
PE05 -10503.390026  23740.269044  14227.591967   -180.815627
PE07  16929.072038  -4536.235943 -23842.820007   -669.366583
PE08  13484.054361  17455.367665 -19725.784606   -530.596486
PE09 -16772.720651   4694.414701  23940.562709   -521.290312
PE10 -23873.390735    483.264000 -17505.978465   -513.576317
PE11 -26975.567661   8524.962193  -8756.982560   3643.570019
PE12 -17261.255023  -7400.870811 -22892.037363   4609.434390
PE13  26861.405181  -8106.964135   9410.079514    428.732775
PE14 -15921.401423  17739.240361 -14649.690365  -1835.065174
PE15  17090.189772   7423.786687  22996.527194    745.133013
PE18   6819.739685 -28930.518187    674.833874  -1438.678078
PE19   -528.628550 -29550.000220   1646.119858  -4812.524339
PE21  10750.295743 -12873.129437  24388.432861   -734.692715
PE24 -25403.399856  -3760.214017 -14715.864259   -619.729244
PE25 -11009.747350  12695.708063 -24363.347433   -574.248560
PE26  20138.011083 -19021.868986 -10429.219542  -1154.748062
PE27  25000.430789   2733.931066  15618.336023   -300.775094
PE30  23891.009936  17191.253011  -3218.695740   -517.453475
PE31 -24404.368692 -16595.063710   2273.013986   -496.764894
PE33   2690.759207 -18489.304059 -22956.428863   -456.551646
PE34  -2461.907827  18433.001691  23017.607552   -517.489893
PE36 -20799.320943  18760.068527   9590.348085   -374.890431
PG01   1708.964378 -15866.298859 -21460.176835    361.085852
PG02 -20375.481876  15832.151981   7261.775694   -653.230645
PG03  -7865.103841 -19849.031939 -15980.596895   -247.321799
PG04    441.138779 -25898.946793   5670.272418   -166.418490
PG05  -7361.481136  13296.181219  21611.616039    -82.162550
PG06 -25097.866921   4912.086384  -7265.588848    306.757519
PG07 -15332.127903  -9323.771850  20133.005527    322.128123
PG08   5524.041491 -25514.055480   3683.491096    -68.374528
PG09  -7935.161162 -20715.036468  14517.672565   -336.064395
PG10  23008.554016  10283.406555  -8694.121839   -417.865826
PG12   2549.750432  19260.229852 -18429.232303   -216.806196
PG13 -13091.177831  20473.972014  10358.657310    313.152353
PG14 -22589.224298 -11647.622318  -7873.255091   -108.657574
PG15  -2067.003199  26150.901920   2476.019933    -60.566074
PG16  12866.817955  -8189.368756  21513.089993   -501.609365
PG17 -13972.722927  -4541.582304 -21692.636174    613.691612
PG18  14218.754710   9433.813598  20373.944961    167.779250
PG19 -15711.966914   3571.494671 -21335.765987    158.467897
PG20 -16782.458605   6797.856426  19357.991141    514.822235
PG21  11817.120020 -17627.330542 -14892.383271    161.113499
PG22  15710.128731  -7099.289535 -19739.854466    260.548332
PG23  20738.256618  16600.494501   1672.094014    -22.437042
PG24  -4973.397872  18135.578652 -18900.106092    239.492340
PG25  15979.541043  19753.333364  -8492.940769    325.805188
PG26  20804.581327   -424.739075  16592.118825    206.211172
PG27  12342.212415 -18255.011520  14320.407443    204.194016
PG28 -20761.948821  -5290.431844 -15033.359379    356.378733
PG29   5485.829176  21358.075112  14704.063790   -514.550070
PG30 -22380.704297  -2637.723382  14337.383273   -528.214503
PG31  25678.475171  -6110.767325  -4832.663711   -177.975880
PG32  15126.072749   1643.052334 -21621.152222   -129.118176
PJ02 -25086.275533  16747.164592 -24872.263059     -0.158819
PJ03 -26913.258382  32325.969647    899.623423     -2.210402
PR01  13058.175951  16624.280908 -14256.468778      8.810646
PR02  10541.334157  -2643.408290 -23029.547750    518.651215
PR03   2233.051321 -19011.008322 -16781.243989     56.796775
PR04  -7127.884578 -24452.318312  -1298.230921    141.939426
PR05 -12503.452239 -16484.643161  14921.974142     93.020791
PR07  -1862.019392  19550.139454  16349.007481     35.200175
PR08   7204.140164  24451.007965   1310.510591    -65.173512
PR09 -23229.372294    840.811473 -10575.423904     55.510358
PR11   8485.199942  11777.003608 -20960.967705     38.788329
PR12  23109.500172   8224.166826  -7004.654465     18.494761
PR13  23675.475717     35.746926   9477.870240    -22.415628
PR14   9702.363744  -8822.817745  21886.657540     25.676653
PR15  -9213.993146 -12001.382722  20556.485000     96.066417
PR17  15278.020252 -19897.065607  -4719.649107    526.816511
PR18   3887.973681 -16654.070717 -18894.706118    117.152263
PR19  -8582.920090  -5987.769883 -23268.462936   -189.315096
PR20 -18923.070900  10911.612115 -13210.091201    -70.728523
PR21 -14614.146206  19946.271903   6213.254245   -301.945054
PR22  -3439.824636  16270.339946  19361.132577   -183.691055
PR24  18924.848890 -11666.709780  12525.305387     94.166481
EOF
